STARLINK-34533          
1 64715U 25142V   25211.21904703 -.00083589  00000+0 -19343-2 0  9990
2 64715  70.0013 163.1230 0002905 250.8581 109.2286 15.42584504  5895
STARLINK-34548          
1 64716U 25142W   25211.21529396  .00037308  00000+0  85093-3 0  9994
2 64716  70.0016 163.1085 0002711 256.1847 103.9034 15.42723251  5915
STARLINK-34568          
1 64717U 25142X   25211.21114891  .00030108  00000+0  68767-3 0  9995
2 64717  70.0005 163.0923 0002990 255.1579 104.9271 15.42736701  5967
STARLINK-34546          
1 64718U 25142Y   25211.20718875  .00043018  00000+0  97946-3 0  9992
2 64718  70.0005 163.0782 0003330 270.9375  89.1425 15.42735593  6121
STARLINK-34577          
1 64719U 25142Z   25211.19908249  .00058118  00000+0  13199-2 0  9991
2 64719  70.0012 163.0482 0003384 269.6784  90.4010 15.42726482  5979
STARLINK-34572          
1 64720U 25142AA  25211.26788530  .00011543  00000+0  26653-3 0  9991
2 64720  70.0014 162.8889 0003524 269.7006  90.3771 15.42716356  6136
STARLINK-34558          
1 64721U 25142AB  25210.91668981  .00024965  00000+0  57200-3 0  9994
2 64721  70.0007 163.6298 0003255 279.5935 110.5852 15.42692457  5974
STARLINK-34393          
1 64724U 25144A   25211.58335648  .00063807  00000+0  15946-2 0  9992
2 64724  53.1604 134.4267 0001071 102.9428 202.8792 15.39566980  5687
STARLINK-34562          
1 64725U 25144B   25211.25002315  .00080772  00000+0  20118-2 0  9996
2 64725  53.1589 136.1566 0000916  73.0284 105.1067 15.39561627  5601
STARLINK-34557          
1 64726U 25144C   25211.25002315  .00080131  00000+0  19957-2 0  9995
2 64726  53.1590 136.1529 0000955  78.7323 101.2557 15.39567581  5620
STARLINK-34242          
1 64727U 25144D   25211.58335648 -.01588658  00000+0 -35215-1 0  9994
2 64727  53.1604 134.3185 0000929  86.0429 273.9831 15.46344901  5680
STARLINK-34239          
1 64728U 25144E   25211.19518515  .00054906  00000+0  98823-3 0  9995
2 64728  53.1610 136.1612 0001306  90.0193 270.0966 15.49312055  5625
STARLINK-34588          
1 64729U 25144F   25210.91668981  .00000921  00000+0  33018-4 0  9992
2 64729  53.1594 137.6737 0001427 108.8785  46.3835 15.39621571  5578
STARLINK-34606          
1 64730U 25144G   25210.91668981  .00002102  00000+0  62532-4 0  9990
2 64730  53.1594 137.6694 0001299  97.6019  59.5322 15.39615756  5579
STARLINK-34552          
1 64731U 25144H   25211.19415276  .00075807  00000+0  13576-2 0  9993
2 64731  53.1603 136.1548 0001299  93.8494 266.2663 15.49314527  5622
STARLINK-34596          
1 64732U 25144J   25211.58335648  .00068128  00000+0  17028-2 0  9995
2 64732  53.1605 134.3737 0001427  93.7754 237.8490 15.39533863  5678
STARLINK-34556          
1 64733U 25144K   25211.58335648 -.01556666  00000+0 -39214-1 0  9998
2 64733  53.1606 134.3320 0000896  92.5547 260.3401 15.42549938  5671
