[{"OBJECT_NAME":"STARLINK-34533","OBJECT_ID":"2025-142V","EPOCH":"2025-07-30T05:15:25.663392","MEAN_MOTION":15.42584504,"ECCENTRICITY":0.0002905,"INCLINATION":70.0013,"RA_OF_ASC_NODE":163.123,"ARG_OF_PERICENTER":250.8581,"MEAN_ANOMALY":109.2286,"EPHEMERIS_TYPE":0,"CLASSIFICATION_TYPE":"U","NORAD_CAT_ID":64715,"ELEMENT_SET_NO":999,"REV_AT_EPOCH":589,"BSTAR":-0.0019343,"MEAN_MOTION_DOT":-0.00083589,"MEAN_MOTION_DDOT":0},{"OBJECT_NAME":"STARLINK-34548","OBJECT_ID":"2025-142W","EPOCH":"2025-07-30T05:10:01.398144","MEAN_MOTION":15.42723251,"ECCENTRICITY":0.0002711,"INCLINATION":70.0016,"RA_OF_ASC_NODE":163.1085,"ARG_OF_PERICENTER":256.1847,"MEAN_ANOMALY":103.9034,"EPHEMERIS_TYPE":0,"CLASSIFICATION_TYPE":"U","NORAD_CAT_ID":64716,"ELEMENT_SET_NO":999,"REV_AT_EPOCH":591,"BSTAR":0.00085093,"MEAN_MOTION_DOT":0.00037308,"MEAN_MOTION_DDOT":0},{"OBJECT_NAME":"STARLINK-34568","OBJECT_ID":"2025-142X","EPOCH":"2025-07-30T05:04:03.265824","MEAN_MOTION":15.42736701,"ECCENTRICITY":0.000299,"INCLINATION":70.0005,"RA_OF_ASC_NODE":163.0923,"ARG_OF_PERICENTER":255.1579,"MEAN_ANOMALY":104.9271,"EPHEMERIS_TYPE":0,"CLASSIFICATION_TYPE":"U","NORAD_CAT_ID":64717,"ELEMENT_SET_NO":999,"REV_AT_EPOCH":596,"BSTAR":0.00068767,"MEAN_MOTION_DOT":0.00030108,"MEAN_MOTION_DDOT":0},{"OBJECT_NAME":"STARLINK-34546","OBJECT_ID":"2025-142Y","EPOCH":"2025-07-30T04:58:21.108000","MEAN_MOTION":15.42735593,"ECCENTRICITY":0.000333,"INCLINATION":70.0005,"RA_OF_ASC_NODE":163.0782,"ARG_OF_PERICENTER":270.9375,"MEAN_ANOMALY":89.1425,"EPHEMERIS_TYPE":0,"CLASSIFICATION_TYPE":"U","NORAD_CAT_ID":64718,"ELEMENT_SET_NO":999,"REV_AT_EPOCH":612,"BSTAR":0.00097946,"MEAN_MOTION_DOT":0.00043018,"MEAN_MOTION_DDOT":0},{"OBJECT_NAME":"STARLINK-34577","OBJECT_ID":"2025-142Z","EPOCH":"2025-07-30T04:46:40.727136","MEAN_MOTION":15.42726482,"ECCENTRICITY":0.0003384,"INCLINATION":70.0012,"RA_OF_ASC_NODE":163.0482,"ARG_OF_PERICENTER":269.6784,"MEAN_ANOMALY":90.401,"EPHEMERIS_TYPE":0,"CLASSIFICATION_TYPE":"U","NORAD_CAT_ID":64719,"ELEMENT_SET_NO":999,"REV_AT_EPOCH":597,"BSTAR":0.0013199,"MEAN_MOTION_DOT":0.00058118,"MEAN_MOTION_DDOT":0},{"OBJECT_NAME":"STARLINK-34572","OBJECT_ID":"2025-142AA","EPOCH":"2025-07-30T06:25:45.289920","MEAN_MOTION":15.42716356,"ECCENTRICITY":0.0003524,"INCLINATION":70.0014,"RA_OF_ASC_NODE":162.8889,"ARG_OF_PERICENTER":269.7006,"MEAN_ANOMALY":90.3771,"EPHEMERIS_TYPE":0,"CLASSIFICATION_TYPE":"U","NORAD_CAT_ID":64720,"ELEMENT_SET_NO":999,"REV_AT_EPOCH":613,"BSTAR":0.00026653,"MEAN_MOTION_DOT":0.00011543,"MEAN_MOTION_DDOT":0},{"OBJECT_NAME":"STARLINK-34558","OBJECT_ID":"2025-142AB","EPOCH":"2025-07-29T22:00:01.999584","MEAN_MOTION":15.42692457,"ECCENTRICITY":0.0003255,"INCLINATION":70.0007,"RA_OF_ASC_NODE":163.6298,"ARG_OF_PERICENTER":279.5935,"MEAN_ANOMALY":110.5852,"EPHEMERIS_TYPE":0,"CLASSIFICATION_TYPE":"U","NORAD_CAT_ID":64721,"ELEMENT_SET_NO":999,"REV_AT_EPOCH":597,"BSTAR":0.000572,"MEAN_MOTION_DOT":0.00024965,"MEAN_MOTION_DDOT":0},{"OBJECT_NAME":"STARLINK-34393","OBJECT_ID":"2025-144A","EPOCH":"2025-07-30T14:00:01.999872","MEAN_MOTION":15.3956698,"ECCENTRICITY":0.0001071,"INCLINATION":53.1604,"RA_OF_ASC_NODE":134.4267,"ARG_OF_PERICENTER":102.9428,"MEAN_ANOMALY":202.8792,"EPHEMERIS_TYPE":0,"CLASSIFICATION_TYPE":"U","NORAD_CAT_ID":64724,"ELEMENT_SET_NO":999,"REV_AT_EPOCH":568,"BSTAR":0.0015946,"MEAN_MOTION_DOT":0.00063807,"MEAN_MOTION_DDOT":0},{"OBJECT_NAME":"STARLINK-34562","OBJECT_ID":"2025-144B","EPOCH":"2025-07-30T06:00:02.000160","MEAN_MOTION":15.39561627,"ECCENTRICITY":9.16e-5,"INCLINATION":53.1589,"RA_OF_ASC_NODE":136.1566,"ARG_OF_PERICENTER":73.0284,"MEAN_ANOMALY":105.1067,"EPHEMERIS_TYPE":0,"CLASSIFICATION_TYPE":"U","NORAD_CAT_ID":64725,"ELEMENT_SET_NO":999,"REV_AT_EPOCH":560,"BSTAR":0.0020118,"MEAN_MOTION_DOT":0.00080772,"MEAN_MOTION_DDOT":0},{"OBJECT_NAME":"STARLINK-34557","OBJECT_ID":"2025-144C","EPOCH":"2025-07-30T06:00:02.000160","MEAN_MOTION":15.39567581,"ECCENTRICITY":9.55e-5,"INCLINATION":53.159,"RA_OF_ASC_NODE":136.1529,"ARG_OF_PERICENTER":78.7323,"MEAN_ANOMALY":101.2557,"EPHEMERIS_TYPE":0,"CLASSIFICATION_TYPE":"U","NORAD_CAT_ID":64726,"ELEMENT_SET_NO":999,"REV_AT_EPOCH":562,"BSTAR":0.0019957,"MEAN_MOTION_DOT":0.00080131,"MEAN_MOTION_DDOT":0},{"OBJECT_NAME":"STARLINK-34242","OBJECT_ID":"2025-144D","EPOCH":"2025-07-30T14:00:01.999872","MEAN_MOTION":15.46344901,"ECCENTRICITY":9.29e-5,"INCLINATION":53.1604,"RA_OF_ASC_NODE":134.3185,"ARG_OF_PERICENTER":86.0429,"MEAN_ANOMALY":273.9831,"EPHEMERIS_TYPE":0,"CLASSIFICATION_TYPE":"U","NORAD_CAT_ID":64727,"ELEMENT_SET_NO":999,"REV_AT_EPOCH":568,"BSTAR":-0.035215,"MEAN_MOTION_DOT":-0.01588658,"MEAN_MOTION_DDOT":0},{"OBJECT_NAME":"STARLINK-34239","OBJECT_ID":"2025-144E","EPOCH":"2025-07-30T04:41:03.996960","MEAN_MOTION":15.49312055,"ECCENTRICITY":0.0001306,"INCLINATION":53.161,"RA_OF_ASC_NODE":136.1612,"ARG_OF_PERICENTER":90.0193,"MEAN_ANOMALY":270.0966,"EPHEMERIS_TYPE":0,"CLASSIFICATION_TYPE":"U","NORAD_CAT_ID":64728,"ELEMENT_SET_NO":999,"REV_AT_EPOCH":562,"BSTAR":0.00098823,"MEAN_MOTION_DOT":0.00054906,"MEAN_MOTION_DDOT":0},{"OBJECT_NAME":"STARLINK-34588","OBJECT_ID":"2025-144F","EPOCH":"2025-07-29T22:00:01.999584","MEAN_MOTION":15.39621571,"ECCENTRICITY":0.0001427,"INCLINATION":53.1594,"RA_OF_ASC_NODE":137.6737,"ARG_OF_PERICENTER":108.8785,"MEAN_ANOMALY":46.3835,"EPHEMERIS_TYPE":0,"CLASSIFICATION_TYPE":"U","NORAD_CAT_ID":64729,"ELEMENT_SET_NO":999,"REV_AT_EPOCH":557,"BSTAR":3.3018e-5,"MEAN_MOTION_DOT":9.21e-6,"MEAN_MOTION_DDOT":0},{"OBJECT_NAME":"STARLINK-34606","OBJECT_ID":"2025-144G","EPOCH":"2025-07-29T22:00:01.999584","MEAN_MOTION":15.39615756,"ECCENTRICITY":0.0001299,"INCLINATION":53.1594,"RA_OF_ASC_NODE":137.6694,"ARG_OF_PERICENTER":97.6019,"MEAN_ANOMALY":59.5322,"EPHEMERIS_TYPE":0,"CLASSIFICATION_TYPE":"U","NORAD_CAT_ID":64730,"ELEMENT_SET_NO":999,"REV_AT_EPOCH":557,"BSTAR":6.2532e-5,"MEAN_MOTION_DOT":2.102e-5,"MEAN_MOTION_DDOT":0},{"OBJECT_NAME":"STARLINK-34552","OBJECT_ID":"2025-144H","EPOCH":"2025-07-30T04:39:34.798464","MEAN_MOTION":15.49314527,"ECCENTRICITY":0.0001299,"INCLINATION":53.1603,"RA_OF_ASC_NODE":136.1548,"ARG_OF_PERICENTER":93.8494,"MEAN_ANOMALY":266.2663,"EPHEMERIS_TYPE":0,"CLASSIFICATION_TYPE":"U","NORAD_CAT_ID":64731,"ELEMENT_SET_NO":999,"REV_AT_EPOCH":562,"BSTAR":0.0013576,"MEAN_MOTION_DOT":0.00075807,"MEAN_MOTION_DDOT":0},{"OBJECT_NAME":"STARLINK-34596","OBJECT_ID":"2025-144J","EPOCH":"2025-07-30T14:00:01.999872","MEAN_MOTION":15.39533863,"ECCENTRICITY":0.0001427,"INCLINATION":53.1605,"RA_OF_ASC_NODE":134.3737,"ARG_OF_PERICENTER":93.7754,"MEAN_ANOMALY":237.849,"EPHEMERIS_TYPE":0,"CLASSIFICATION_TYPE":"U","NORAD_CAT_ID":64732,"ELEMENT_SET_NO":999,"REV_AT_EPOCH":567,"BSTAR":0.0017028,"MEAN_MOTION_DOT":0.00068128,"MEAN_MOTION_DDOT":0},{"OBJECT_NAME":"STARLINK-34556","OBJECT_ID":"2025-144K","EPOCH":"2025-07-30T14:00:01.999872","MEAN_MOTION":15.42549938,"ECCENTRICITY":8.96e-5,"INCLINATION":53.1606,"RA_OF_ASC_NODE":134.332,"ARG_OF_PERICENTER":92.5547,"MEAN_ANOMALY":260.3401,"EPHEMERIS_TYPE":0,"CLASSIFICATION_TYPE":"U","NORAD_CAT_ID":64733,"ELEMENT_SET_NO":999,"REV_AT_EPOCH":567,"BSTAR":-0.039214,"MEAN_MOTION_DOT":-0.01556666,"MEAN_MOTION_DDOT":0}]
